[{"OBJECT_NAME":"KUIPER-00025","OBJECT_ID":"2025-088R","EPOCH":"2026-03-09T06:58:33.870720","MEAN_MOTION":14.83523412,"ECCENTRICITY":4.92e-5,"INCLINATION":51.9016,"RA_OF_ASC_NODE":103.1273,"ARG_OF_PERICENTER":19.3968,"MEAN_ANOMALY":340.7015,"EPHEMERIS_TYPE":0,"CLASSIFICATION_TYPE":"U","NORAD_CAT_ID":63739,"ELEMENT_SET_NO":999,"REV_AT_EPOCH":4774,"BSTAR":0.00061010528,"MEAN_MOTION_DOT":4.845e-5,"MEAN_MOTION_DDOT":0},{"OBJECT_NAME":"SL-14 R\/B","OBJECT_ID":"1990-018B","EPOCH":"2026-03-09T21:46:28.582464","MEAN_MOTION":14.82145209,"ECCENTRICITY":0.00176734,"INCLINATION":82.5203,"RA_OF_ASC_NODE":222.8861,"ARG_OF_PERICENTER":91.4,"MEAN_ANOMALY":268.9239,"EPHEMERIS_TYPE":0,"CLASSIFICATION_TYPE":"U","NORAD_CAT_ID":20511,"ELEMENT_SET_NO":999,"REV_AT_EPOCH":92261,"BSTAR":8.2072718e-5,"MEAN_MOTION_DOT":6.78e-6,"MEAN_MOTION_DDOT":0}]
